ONEWEB-0534             
1 55797U 23029B   24094.23769638  .00000042  00000+0  72519-4 0  9995
2 55797  87.9152  74.6564 0001853  79.8101 280.3241 13.20771824 55580
ONEWEB-0556             
1 55798U 23029C   24093.86522593 -.00000125  00000+0 -33903-3 0  9998
2 55798  87.9150  74.7244 0002383  63.0340 297.1037 13.20771159 54842
ONEWEB-0562             
1 55799U 23029D   24094.23139410 -.00000007  00000+0 -49530-4 0  9996
2 55799  87.9153  74.6414 0002955  72.8562 287.2894 13.20770794 55579
ONEWEB-0563             
1 55800U 23029E   24094.22505596  .00000084  00000+0  17405-3 0  9998
2 55800  87.9153  74.6577 0002013  74.9236 285.2120 13.20769290 55566
ONEWEB-0564             
1 55801U 23029F   24093.83996884 -.00000003  00000+0 -40528-4 0  9995
2 55801  87.9153  74.7191 0002389  86.5232 273.6174 13.20769706 54843
ONEWEB-0638             
1 55802U 23029G   24094.21915304  .00000158  00000+0  39178-3 0  9994
2 55802  87.8900  89.9441 0001848  65.1367 294.9954 13.14504123 54351
ONEWEB-0639             
1 55803U 23029H   24093.78175792  .00000011  00000+0 -56899-5 0  9995
2 55803  87.9100 105.2851 0000474  96.0052 264.1134 13.19723738 52672
ONEWEB-0640             
1 55804U 23029J   24093.92420272 -.00000032  00000+0 -12085-3 0  9999
2 55804  87.8896  90.0005 0001703  58.9526 301.1771 13.14502707 53626
